start=new Date('2022-04-05T00:00:00.000Z').valueOf();
sats=[{"MEAN_ELEMENT_THEORY":"SGP4","APOAPSIS":"548.242","PERIAPSIS":"546.211","OBJECT_NAME":"STARLINK-1134","RCS_SIZE":"LARGE","CENTER_NAME":"EARTH","OBJECT_TYPE":"PAYLOAD","PERIOD":"95.592","MEAN_MOTION_DOT":"0.00004040","SEMIMAJOR_AXIS":"6925.361","DECAY_DATE":null,"REF_FRAME":"TEME","LAUNCH_DATE":"2020-01-29","ECCENTRICITY":"0.00014660","RA_OF_ASC_NODE":"249.1219","REV_AT_EPOCH":"12015","MEAN_MOTION_DDOT":"0.0000000000000","EPHEMERIS_TYPE":"0","SITE":"AFETR","TIME_SYSTEM":"UTC","MEAN_MOTION":"15.06395787","ARG_OF_PERICENTER":"73.8517","NORAD_CAT_ID":"45048","FILE":"3387897","TLE_LINE2":"2 45048  53.0534 249.1219 0001466  73.8517 286.2633 15.06395787120159","TLE_LINE1":"1 45048U 20006E   22094.56790039  .00004040  00000-0  29002-3 0  9999","COUNTRY_CODE":"US","GP_ID":"200423259","ELEMENT_SET_NO":"999","CLASSIFICATION_TYPE":"U","MEAN_ANOMALY":"286.2633","INCLINATION":"53.0534","BSTAR":"0.00029002000000","OBJECT_ID":"2020-006E","EPOCH":"2022-04-04T13:37:46.593696"},{"MEAN_MOTION":"15.07864172","TIME_SYSTEM":"UTC","NORAD_CAT_ID":"45049","FILE":"3387897","ARG_OF_PERICENTER":"122.2958","COUNTRY_CODE":"US","TLE_LINE1":"1 45049U 20006F   22094.54532474  .00021194  00000-0  13817-2 0  9990","GP_ID":"200423995","TLE_LINE2":"2 45049  53.0531 248.9653 0002352 122.2958 237.8260 15.07864172120157","BSTAR":"0.00138170000000","EPOCH":"2022-04-04T13:05:16.057536","OBJECT_ID":"2020-006F","ELEMENT_SET_NO":"999","CLASSIFICATION_TYPE":"U","MEAN_ANOMALY":"237.8260","INCLINATION":"53.0531","APOAPSIS":"544.358","MEAN_ELEMENT_THEORY":"SGP4","CENTER_NAME":"EARTH","RCS_SIZE":"LARGE","OBJECT_TYPE":"PAYLOAD","PERIAPSIS":"541.102","OBJECT_NAME":"STARLINK-1135","REF_FRAME":"TEME","MEAN_MOTION_DOT":"0.00021194","PERIOD":"95.499","DECAY_DATE":null,"SEMIMAJOR_AXIS":"6920.865","MEAN_MOTION_DDOT":"0.0000000000000","EPHEMERIS_TYPE":"0","SITE":"AFETR","LAUNCH_DATE":"2020-01-29","REV_AT_EPOCH":"12015","RA_OF_ASC_NODE":"248.9653","ECCENTRICITY":"0.00023520"},{"DECAY_DATE":null,"SEMIMAJOR_AXIS":"6925.375","PERIOD":"95.593","MEAN_MOTION_DOT":"0.00001429","REF_FRAME":"TEME","ECCENTRICITY":"0.00016120","RA_OF_ASC_NODE":"249.0764","REV_AT_EPOCH":"12015","LAUNCH_DATE":"2020-01-29","SITE":"AFETR","EPHEMERIS_TYPE":"0","MEAN_MOTION_DDOT":"0.0000000000000","MEAN_ELEMENT_THEORY":"SGP4","APOAPSIS":"548.356","OBJECT_NAME":"STARLINK-1140","PERIAPSIS":"546.123","OBJECT_TYPE":"PAYLOAD","RCS_SIZE":"LARGE","CENTER_NAME":"EARTH","TLE_LINE2":"2 45050  53.0539 249.0764 0001612  55.6794 304.4347 15.06391468120156","TLE_LINE1":"1 45050U 20006G   22094.57896118  .00001429  00000-0  11486-3 0  9993","COUNTRY_CODE":"US","GP_ID":"200422763","MEAN_ANOMALY":"304.4347","INCLINATION":"53.0539","CLASSIFICATION_TYPE":"U","ELEMENT_SET_NO":"999","OBJECT_ID":"2020-006G","EPOCH":"2022-04-04T13:53:42.245952","BSTAR":"0.00011486000000","TIME_SYSTEM":"UTC","MEAN_MOTION":"15.06391468","ARG_OF_PERICENTER":"55.6794","FILE":"3387897","NORAD_CAT_ID":"45050"},{"OBJECT_ID":"2020-006H","EPOCH":"2022-04-04T13:25:19.778880","BSTAR":"0.00182250000000","MEAN_ANOMALY":"246.6023","INCLINATION":"53.0515","CLASSIFICATION_TYPE":"U","ELEMENT_SET_NO":"999","TLE_LINE2":"2 45051  53.0515 247.5853 0000530 113.5023 246.6023 15.09713054120172","TLE_LINE1":"1 45051U 20006H   22094.55925670  .00029545  00000-0  18225-2 0  9994","GP_ID":"200422513","COUNTRY_CODE":"US","FILE":"3387897","NORAD_CAT_ID":"45051","ARG_OF_PERICENTER":"113.5023","MEAN_MOTION":"15.09713054","TIME_SYSTEM":"UTC","EPHEMERIS_TYPE":"0","SITE":"AFETR","MEAN_MOTION_DDOT":"0.0000000000000","RA_OF_ASC_NODE":"247.5853","ECCENTRICITY":"0.00005300","REV_AT_EPOCH":"12017","LAUNCH_DATE":"2020-01-29","REF_FRAME":"TEME","DECAY_DATE":null,"SEMIMAJOR_AXIS":"6915.213","PERIOD":"95.382","MEAN_MOTION_DOT":"0.00029545","OBJECT_TYPE":"PAYLOAD","RCS_SIZE":"LARGE","CENTER_NAME":"EARTH","OBJECT_NAME":"STARLINK-1141","PERIAPSIS":"536.712","APOAPSIS":"537.445","MEAN_ELEMENT_THEORY":"SGP4"},{"MEAN_ANOMALY":"288.1357","INCLINATION":"53.0542","ELEMENT_SET_NO":"999","CLASSIFICATION_TYPE":"U","OBJECT_ID":"2020-006J","EPOCH":"2022-04-04T12:28:46.284960","BSTAR":"0.00002917300000","TLE_LINE2":"2 45052  53.0542 249.3415 0001465  71.9791 288.1357 15.06383825120148","TLE_LINE1":"1 45052U 20006J   22094.51998015  .00000153  00000-0  29173-4 0  9994","COUNTRY_CODE":"US","GP_ID":"200423759","ARG_OF_PERICENTER":"71.9791","FILE":"3387897","NORAD_CAT_ID":"45052","TIME_SYSTEM":"UTC","MEAN_MOTION":"15.06383825","ECCENTRICITY":"0.00014650","RA_OF_ASC_NODE":"249.3415","REV_AT_EPOCH":"12014","LAUNCH_DATE":"2020-01-29","SITE":"AFETR","EPHEMERIS_TYPE":"0","MEAN_MOTION_DDOT":"0.0000000000000","DECAY_DATE":null,"SEMIMAJOR_AXIS":"6925.398","PERIOD":"95.593","MEAN_MOTION_DOT":"0.00000153","REF_FRAME":"TEME","OBJECT_NAME":"STARLINK-1148","PERIAPSIS":"546.249","OBJECT_TYPE":"PAYLOAD","RCS_SIZE":"LARGE","CENTER_NAME":"EARTH","MEAN_ELEMENT_THEORY":"SGP4","APOAPSIS":"548.278"},{"BSTAR":"0.00145170000000","EPOCH":"2022-04-04T13:59:26.864448","OBJECT_ID":"2020-006K","ELEMENT_SET_NO":"999","CLASSIFICATION_TYPE":"U","INCLINATION":"53.0015","MEAN_ANOMALY":"296.8877","TLE_LINE1":"1 45053U 20006K   22094.58294982  .00023876  00000-0  14517-2 0  9995","GP_ID":"200423496","COUNTRY_CODE":"US","TLE_LINE2":"2 45053  53.0015 244.1621 0001178  63.2234 296.8877 15.10352379120196","NORAD_CAT_ID":"45053","FILE":"3387897","ARG_OF_PERICENTER":"63.2234","MEAN_MOTION":"15.10352379","TIME_SYSTEM":"UTC","MEAN_MOTION_DDOT":"0.0000000000000","SITE":"AFETR","EPHEMERIS_TYPE":"0","LAUNCH_DATE":"2020-01-29","REV_AT_EPOCH":"12019","RA_OF_ASC_NODE":"244.1621","ECCENTRICITY":"0.00011780","REF_FRAME":"TEME","MEAN_MOTION_DOT":"0.00023876","PERIOD":"95.342","DECAY_DATE":null,"SEMIMAJOR_AXIS":"6913.262","CENTER_NAME":"EARTH","RCS_SIZE":"LARGE","OBJECT_TYPE":"PAYLOAD","PERIAPSIS":"534.312","OBJECT_NAME":"STARLINK-1155","APOAPSIS":"535.941","MEAN_ELEMENT_THEORY":"SGP4"},{"BSTAR":"0.00016588000000","EPOCH":"2022-04-04T13:59:00.683520","OBJECT_ID":"2020-006L","CLASSIFICATION_TYPE":"U","ELEMENT_SET_NO":"999","INCLINATION":"53.0546","MEAN_ANOMALY":"290.6383","COUNTRY_CODE":"US","TLE_LINE1":"1 45054U 20006L   22094.58264680  .00002189  00000-0  16588-3 0  9993","GP_ID":"200422264","TLE_LINE2":"2 45054  53.0546 249.0773 0001420  69.4758 290.6383 15.06385603120158","NORAD_CAT_ID":"45054","FILE":"3387897","ARG_OF_PERICENTER":"69.4758","MEAN_MOTION":"15.06385603","TIME_SYSTEM":"UTC","MEAN_MOTION_DDOT":"0.0000000000000","SITE":"AFETR","EPHEMERIS_TYPE":"0","LAUNCH_DATE":"2020-01-29","REV_AT_EPOCH":"12015","RA_OF_ASC_NODE":"249.0773","ECCENTRICITY":"0.00014200","REF_FRAME":"TEME","MEAN_MOTION_DOT":"0.00002189","PERIOD":"95.593","DECAY_DATE":null,"SEMIMAJOR_AXIS":"6925.393","CENTER_NAME":"EARTH","RCS_SIZE":"LARGE","OBJECT_TYPE":"PAYLOAD","PERIAPSIS":"546.274","OBJECT_NAME":"STARLINK-1156","APOAPSIS":"548.241","MEAN_ELEMENT_THEORY":"SGP4"},{"TIME_SYSTEM":"UTC","MEAN_MOTION":"15.06395054","ARG_OF_PERICENTER":"61.6495","NORAD_CAT_ID":"45057","FILE":"3387897","TLE_LINE2":"2 45057  53.0531 251.0665 0001531  61.6495 298.4648 15.06395054120097","TLE_LINE1":"1 45057U 20006P   22094.13296159  .00006159  00000-0  43205-3 0  9990","GP_ID":"200423013","COUNTRY_CODE":"US","ELEMENT_SET_NO":"999","CLASSIFICATION_TYPE":"U","INCLINATION":"53.0531","MEAN_ANOMALY":"298.4648","BSTAR":"0.00043205000000","OBJECT_ID":"2020-006P","EPOCH":"2022-04-04T03:11:27.881376","MEAN_ELEMENT_THEORY":"SGP4","APOAPSIS":"548.289","PERIAPSIS":"546.168","OBJECT_NAME":"STARLINK-1159","RCS_SIZE":"LARGE","CENTER_NAME":"EARTH","OBJECT_TYPE":"PAYLOAD","PERIOD":"95.592","MEAN_MOTION_DOT":"0.00006159","DECAY_DATE":null,"SEMIMAJOR_AXIS":"6925.364","REF_FRAME":"TEME","LAUNCH_DATE":"2020-01-29","ECCENTRICITY":"0.00015310","RA_OF_ASC_NODE":"251.0665","REV_AT_EPOCH":"12009","MEAN_MOTION_DDOT":"0.0000000000000","SITE":"AFETR","EPHEMERIS_TYPE":"0"},{"APOAPSIS":"548.315","MEAN_ELEMENT_THEORY":"SGP4","OBJECT_TYPE":"PAYLOAD","RCS_SIZE":"LARGE","CENTER_NAME":"EARTH","OBJECT_NAME":"STARLINK-1162","PERIAPSIS":"546.197","REF_FRAME":"TEME","DECAY_DATE":null,"SEMIMAJOR_AXIS":"6925.391","PERIOD":"95.593","MEAN_MOTION_DOT":"0.00000755","SITE":"AFETR","EPHEMERIS_TYPE":"0","MEAN_MOTION_DDOT":"0.0000000000000","RA_OF_ASC_NODE":"249.3230","ECCENTRICITY":"0.00015290","REV_AT_EPOCH":"12015","LAUNCH_DATE":"2020-01-29","MEAN_MOTION":"15.06386154","TIME_SYSTEM":"UTC","FILE":"3387897","NORAD_CAT_ID":"45058","ARG_OF_PERICENTER":"63.8356","TLE_LINE2":"2 45058  53.0532 249.3230 0001529  63.8356 296.2790 15.06386154120156","TLE_LINE1":"1 45058U 20006Q   22094.52366900  .00000755  00000-0  69607-4 0  9997","COUNTRY_CODE":"US","GP_ID":"200423260","OBJECT_ID":"2020-006Q","EPOCH":"2022-04-04T12:34:05.001600","BSTAR":"0.00006960700000","MEAN_ANOMALY":"296.2790","INCLINATION":"53.0532","ELEMENT_SET_NO":"999","CLASSIFICATION_TYPE":"U"},{"MEAN_ANOMALY":"291.3667","INCLINATION":"53.0550","ELEMENT_SET_NO":"999","CLASSIFICATION_TYPE":"U","EPOCH":"2022-04-04T13:05:56.037408","OBJECT_ID":"2020-006R","BSTAR":"0.00009149700000","COUNTRY_CODE":"US","TLE_LINE1":"1 45059U 20006R   22094.54578747  .00001081  00000-0  91497-4 0  9999","GP_ID":"200423996","TLE_LINE2":"2 45059  53.0550 249.2349 0001379  68.7469 291.3667 15.06389179120158","ARG_OF_PERICENTER":"68.7469","FILE":"3387897","NORAD_CAT_ID":"45059","TIME_SYSTEM":"UTC","MEAN_MOTION":"15.06389179","REV_AT_EPOCH":"12015","RA_OF_ASC_NODE":"249.2349","ECCENTRICITY":"0.00013790","LAUNCH_DATE":"2020-01-29","SITE":"AFETR","EPHEMERIS_TYPE":"0","MEAN_MOTION_DDOT":"0.0000000000000","DECAY_DATE":null,"SEMIMAJOR_AXIS":"6925.382","MEAN_MOTION_DOT":"0.00001081","PERIOD":"95.593","REF_FRAME":"TEME","OBJECT_NAME":"STARLINK-1165","PERIAPSIS":"546.292","OBJECT_TYPE":"PAYLOAD","CENTER_NAME":"EARTH","RCS_SIZE":"LARGE","MEAN_ELEMENT_THEORY":"SGP4","APOAPSIS":"548.202"}];
